1 42887U 17042BQ  21196.06526469  .00007726  00000-0  15767-3 0  9991
2 42887  96.8484  48.0738 0008589 331.2670  28.8107 15.46409206224676
